property_id,pmindx,normalized_state_id,fha_loan_id,application_number,state_id,contract_id,hud_property_name,property_street_address,city,state,zip_code,owner_organization_name,assisted_units,demographic,physical_disability_housing,mental_disability_housing,homeless_housing,owner_representative,property_manager_company,scattered_sites
800072150,7085,TC6795-5754,03364506,N-9099 / TC9024-0312,TC4094-7019,PA83UDF1378,"FileMaker Inc., formerly Claris Corp.",624 Chattanooga Spur,Compton,PA,59636,Housing Authority of Rosslyn Farms,184,Elderly,True,True,False,Firestone Tire and Rubber Company,Bradley Pharmaceuticals,True
800077943,9755,TC2804-2029,03313184,Y-4478 / TC8682-7098,TC3800-9018,PA13RSX1816,Las Vegas Yard Management,947 Dutch Windmill Access Square,Watertown,PA,38147,Housing Authority of Jefferson Hills,372,Elderly,True,True,True,THQ,Orion,True
800676515,5008,TC3206-2544,03381225,Y-0046 / TC6617-0065,TC3214-1808,PA87JQJ6482,Amazon.com,142 La Avanzada Lake,Albertville,PA,04022,Housing Authority of Braddock,85,Elderly,True,False,False,Belle Lady,CVS Pharmacy,
800359893,3024,TC6635-2854,03320715,TC0672-2352,TC3346-1049,PA44GXG3794,1195 Ingerson Crescent,526 Yale Grove,San Jose,PA,45628,Housing Authority of Bell Acres,311,General,False,True,False,GE Consumer & Industrial,Magna Wealth,True
800258133,380,TC6812-8675,03365615,N-6916 / TC5032-7280,TC1796-9398,PA13QJH2519,167 Dolores Manor,82 Service Field,Pine Bluff,PA,03165,Housing Authority of Cheswick,445,Elderly,False,True,True,O'Reilly,Future Bright,True
800594358,8662,TC9073-7263,03323548,Y-7430 / TC9777-8920,TC7587-3452,PA38EME3980,370 Richter Park,1246 Gorgas Trail,Williamsport,PA,97507,Housing Authority of Aspinwall,60,Elderly,True,True,True,Reliable Investments,Marathon Oil,
800509945,1309,TC3912-2418,03397134,N-5458 / TC3625-3950,TC3049-7095,PA64AFM5025,1177 Rose Bypass,467 Ggp Access Road Glen,Norristown,PA,06791,Housing Authority of Leet,381,Elderly,True,False,False,Vizio,American Broadcasting Company,
800092847,9179,TC3739-4210,03305692,N-6392 / TC7456-4997,TC3582-0395,PA41YRF0931,Macro Design,446 Brazil Landing,Montrose,PA,91090,Housing Authority of Munhall,124,Elderly,True,False,False,THQ,OCZ Technology,True
800750516,4514,TC9052-4745,03301527,N-6877 / TC9527-0481,TC4257-0378,PA99SEU8161,Apollo Group,441 San Jose Trace,Grand Prairie,PA,86086,Housing Authority of Oakmont,539,General,True,True,True,AMC Entertainment,Audiovox,
800098886,7937,TC5213-3129,03322940,Y-9705 / TC8221-6576,TC1199-3517,PA07DMR3944,Science Applications International Corporation,1172 Berry Street,Plant City,PA,19019,Housing Authority of Frazer,187,Elderly,False,False,False,Locost Accessories,Apache Software Foundation,
800127997,8864,TC6526-8635,03336584,TC9292-0804,TC1209-3834,PA78JPK9573,981 Codman Path,260 Hollis Place,Oxnard,PA,29945,Housing Authority of Etna,600,Elderly,True,True,False,LinkedIn,Wendy's/Arby's Group,
800170362,8578,TC9939-8187,03302400,TC5049-5260,TC9306-0195,PA60BRG8869,449 Casitas Trail,264 Paris Run,Pascagoula,PA,09657,Housing Authority of Stowe,240,General,True,True,True,Emerson Electric Company,Body Fate,
800890084,5370,TC9170-0735,03327258,Y-1375 / TC5818-5720,TC0185-1702,PA15SGZ2636,360 Bercut Access Circle,1191 El Polin Alley,Middletown,PA,77582,Housing Authority of Plum,151,General,True,True,False,Dominion Resources,First Choice Garden Maintenance,
800859651,3533,TC4650-9982,03306534,N-2749 / TC5300-6505,TC5007-4602,PA62ODB8068,WellPoint,222 Mccormick Annex,Durham,PA,29478,Housing Authority of Fawn,266,Elderly,False,False,False,Seagate Technology,"ZOMM, LLC",True
800837313,4824,TC1101-4098,03346918,TC1714-4937,TC5228-8588,PA86HJB8418,DISH Network,78 Tulane Ranch,Bolingbrook,PA,37226,Housing Authority of Green Tree,390,Elderly,True,True,False,ADC Telecommunications,AnaSpec,
800850529,540,TC4294-7479,03372907,N-0550 / TC4603-8096,TC2767-2634,PA00BEH0623,Firestone Tire and Rubber Company,1094 Grace Route,Flower Mound,PA,24494,Housing Authority of Wall,409,General,True,False,True,West Liberty Foods,Indiewealth,True
800535265,3499,TC8115-2467,03324382,TC2249-2041,TC2461-4287,PA62QMI5576,AGCO,1109 Wallen Trace,Inkster,PA,49360,Housing Authority of Thornburg,369,Elderly,False,False,False,Eureka,Electric Boat,
800155018,2927,TC9871-8457,03397309,N-6218 / TC8008-5990,TC2067-3438,PA61YRO3838,Edge Garden Services,35 South Hughes Bayou,Creve Coeur,PA,02773,Housing Authority of Crafton,343,General,False,True,False,Reliable Guidance,Agriprocessors,
800170375,6879,TC5263-3126,03387777,N-5724 / TC1532-7535,TC4430-9095,PA95HKU5654,Desert Garden Help,634 Andover Circle,Bullhead City,PA,23962,Housing Authority of Wall,454,Elderly,True,True,True,Comodo,Rockford Fosgate,
800877223,7494,TC1455-4917,03326941,Y-5009 / TC5591-2215,TC2495-0987,PA17JIW1783,Integra Wealth,986 Edith Rapids,Kingsport,PA,39374,Housing Authority of Port Vue,10,Elderly,False,True,True,Castle Realty,SBC Communications,
800039901,10018,TC8224-1736,03346333,Y-6678 / TC8257-1261,TC6978-8560,PA52WNL9143,495 Seal Cove Motorway,1236 Custom House Point,Rutherford,PA,26151,Housing Authority of Braddock Hills,560,General,False,False,False,General Dynamics,The Vanguard Group,True
800306727,2709,TC6570-9143,03321289,N-3005 / TC4300-2668,TC2475-5421,PA42CYS2296,Control Data Corporation,461 Hulbert Plaza,Suffolk,PA,56671,Housing Authority of Brentwood,146,Elderly,False,True,False,AVST,Quanta Services,
800742907,5427,TC0504-6985,03365621,N-0924 / TC4540-7569,TC5449-1482,PA62BGD8370,1040 Caine Pass,864 Brooks Extension,Hoffman Estates,PA,56382,Housing Authority of Scott,285,Elderly,False,True,False,Grey Fade,Alexander & Baldwin,True
800283980,1809,TC9854-2150,03357578,Y-1600 / TC7560-1130,TC7660-2988,PA68LCY8279,198 Holyoke Turnpike,233 Blanche Junction,Kissimmee,PA,40827,Housing Authority of Mount Oliver,359,General,True,False,True,Quanta Services,Vertex Pharmaceuticals,
800806838,9256,TC7619-2454,03354721,TC3163-5697,TC2659-6297,PA96ZAW8334,Balanced Fortune,825 Goldberg Landing,Avon,PA,15731,Housing Authority of Castle Shannon,479,Elderly,True,True,True,Rivera Property Maintenance,General Communication,
800050562,7833,TC7144-3160,03342716,Y-6851 / TC0650-2846,TC0975-3577,PA91UGQ3822,Storage Technology Corporation,942 Music Concourse Highway,Vestavia Hills,PA,49634,Housing Authority of Indiana,411,Elderly,True,True,False,Northern Star,Ocean Spray,True
800362732,1041,TC1906-6922,03302603,TC1242-9901,TC0041-6258,PA40GWA4083,US Cellular,1045 Icehouse Pike,Bozeman,PA,97267,Housing Authority of Fox Chapel,217,General,True,False,True,Total Sources,First Rate Choice,True
800838372,4287,TC4058-4164,03318939,TC2648-6222,TC8732-9140,PA81BUD4600,Royal Caribbean International,414 Avocet Road,Lufkin,PA,78423,Housing Authority of North Braddock,487,General,True,True,False,Maxaprofit,Cerner Corporation,True
800244459,841,TC2364-6878,03399204,TC6261-6469,TC6700-4342,PA47EAB7674,Seattle's Best Coffee,1290 Hunter Run,Northport,PA,99967,Housing Authority of Moon,107,Elderly,False,True,False,General Motors,AGCO,True
800866401,5476,TC0030-5073,03348113,TC8223-0993,TC6610-4078,PA49EEF6098,31 Judah Cove,1267 Lily Pine,Manchester,PA,33458,Housing Authority of Edgeworth,112,General,True,False,True,"Staples, Inc.",Lowe's,
800137082,3815,TC8293-5566,03376681,Y-3619 / TC8575-0411,TC2373-1310,PA66QZE5094,450 Recycle Grove,567 Gold Mine Circle,Erie,PA,63800,Housing Authority of Carnegie,364,Elderly,True,True,False,Millenia Life,Price Waterhouse Coopers,True
800296704,809,TC8165-9994,03386990,Y-9142 / TC3493-0127,TC9011-0635,PA22XQU9394,Lumencraft,603 Graystone Landing,Midlothian,PA,34664,Housing Authority of North Versailles,326,General,False,False,True,Mars Incorporated,Whirlpool Corporation,
800508820,5407,TC4477-6952,03315147,TC5593-8098,TC9667-0492,PA79XGH7385,49 Seward Lane,20 Loraine Route,Darien,PA,51831,Housing Authority of Glen Osborne,266,Elderly,False,False,True,Mission You,United Services Automobile Association,True
800721649,8555,TC8282-6275,03338066,TC5176-1449,TC1442-7564,PA61RLT3286,742 Glenbrook Estate,1328 Jessie East Square,Pleasant Hill,PA,30747,Housing Authority of East Deer,217,General,True,True,False,Electric Boat,Safeco Corporation,True
800418357,3134,TC0651-9140,03359126,N-7412 / TC8014-9990,TC3709-8613,PA79YXS7632,752 Beale Stravenue,110 Hulbert Loop,Rochester,PA,97670,Housing Authority of Turtle Creek,357,Elderly,False,True,True,One-Up Realtors,Verizon Wireless,True
800702816,2048,TC2551-7130,03379747,Y-4341 / TC0859-8670,TC9965-1689,PA69TDN9155,Jackhammer Technologies,797 Ramona Court,Dothan,PA,26624,Housing Authority of North Versailles,22,General,False,False,False,International Business Machines,General Electric,
800255512,6863,TC6386-9464,03300302,TC7620-9177,TC1271-7215,PA88CGL6650,ASARCO,49 Arch Trail,Anderson,PA,53078,Housing Authority of Port Vue,399,General,True,True,False,Tanadgusix Corporation,Strength Gurus,
800058024,1935,TC7236-6953,03340038,Y-5518 / TC5006-4710,TC3187-2499,PA66NIJ6416,The Happy Bear,166 Vista View Drive,Hackensack,PA,43811,Housing Authority of Mount Oliver,60,General,False,True,False,Gamma Grays,Royal Caribbean International,
800069273,7521,TC1314-3188,03353474,Y-1804 / TC7166-3046,TC3314-6438,PA33CUQ3555,First Choice Garden Maintenance,559 Verdun Terrace,Antioch,PA,87145,Housing Authority of South Versailles,126,Elderly,False,False,True,Werner Enterprises,Continental Airlines,True
800952331,5935,TC4402-1847,03353004,N-5176 / TC3408-5388,TC0060-6394,PA73GQF0399,Avant Garde Interior Designs,574 Merrill Estate,Kansas City,PA,38702,Housing Authority of Heidelberg,468,General,False,False,False,Universal Design Partners,Mission You,True
800901306,7538,TC5132-8347,03334889,TC9273-9732,TC8444-8567,PA24WQP6961,1239 Marina Road,595 Ecker Crescent,De Land,PA,27255,Housing Authority of Glenfield,255,General,True,True,False,Storage Technology Corporation,GE Consumer & Industrial,
800906839,5562,TC5049-6971,03370703,N-2899 / TC7610-1662,TC6049-6073,PA05PZR2848,159 Harkness Cove,1227 Gladeview Pass,Ashtabula,PA,42302,Housing Authority of Richland,580,Elderly,False,True,False,AC Lens,Back To Basics Chiropractic Clinic,
800197594,3807,TC8199-2932,03388714,Y-4998 / TC3121-0174,TC8390-6536,PA75ECC9396,New World,483 Harbor Run,Park Forest,PA,39523,Housing Authority of Sewickley,266,Elderly,True,True,False,Monk Real Estate Service,Darden Restaurants,True
800248397,2270,TC6489-3066,03328257,Y-7160 / TC3576-4962,TC2115-4380,PA88NMK9772,Jackhammer Technologies,1052 Stanton Ferry,Lorain,PA,64665,Housing Authority of Moon,326,Elderly,True,True,True,Arryx,Bristol-Myers Squibb,
800059850,736,TC9869-3574,03378085,Y-3894 / TC6195-4606,TC8603-6678,PA30AEK9800,897 Milton Canyon,315 Olympia Bypass,Chesterfield,PA,89616,Housing Authority of Wilkinsburg,378,General,True,False,False,Back To Basics Chiropractic Clinic,ConocoPhillips,
800961287,9085,TC6000-9600,03329928,Y-7993 / TC2109-5463,TC6003-9179,PA89ILM1505,Strategy Consulting,76 Mono Bend,Hobart,PA,54781,Housing Authority of Brentwood,418,General,True,True,True,Omni Tech,DTE Energy,
800199465,2561,TC6794-7911,03392041,N-3989 / TC3159-0058,TC4552-6399,PA57AAN4386,329 Legion Of Honor Square,556 Seminole Station,Chowchilla,PA,47876,Housing Authority of West Homestead,249,Elderly,True,True,True,Supervalu,KPMG,
800288711,5429,TC5401-3785,03376986,Y-6501 / TC0969-2836,TC4585-4287,PA45WUJ0036,AMC Entertainment,962 Church Access Walk,Woodburn,PA,33792,Housing Authority of South Park,178,General,True,True,True,Konsili,Netstars Matrix Design,True
800232388,2333,TC1812-5025,03397818,N-0749 / TC2871-3068,TC5682-2572,PA92VYT2710,984 La Avanzada Place,623 Hugo Square,Scottsdale,PA,72741,Housing Authority of Sewickley,446,Elderly,False,True,True,Miller Brewing,Southern California Edison,True
800173647,3238,TC8645-5755,03395756,N-9434 / TC7627-6474,TC5273-3251,PA81AUN9804,1316 Mill Mews,451 Ruckman Motorway,Seattle,PA,25214,Housing Authority of West View,364,Elderly,False,True,True,AECOM,Bristol-Myers Squibb,
800868600,8883,TC1300-6419,03336762,N-6459 / TC5750-4252,TC1593-5361,PA55UJA2144,213 Flint Heights,67 Knockash Trace,Enid,PA,75027,Housing Authority of Wilkinsburg,289,Elderly,True,False,False,Office Max,BlackRock,True
800067620,8521,TC0429-7987,03375600,TC6191-5452,TC6631-5969,PA46AOY1137,Allegheny Technologies,395 Sweeny Pike,Deerfield,PA,70618,Housing Authority of Indiana,241,Elderly,True,True,True,RadioShack,Manu Connection,True
800712749,10454,TC3581-3595,03304112,N-3956 / TC5104-2708,TC9556-4134,PA32ISA0509,Aon Corporation,195 Telegraph Square,Sanger,PA,55724,Housing Authority of Sewickley Heights,337,Elderly,True,True,True,National Railway Equipment Company,MCI Inc.,
800823640,6316,TC6005-7613,03397674,TC5823-2583,TC7710-4215,PA56VEN5548,1122 Rincon Cove,162 Exposition Center,Frederick,PA,01029,Housing Authority of South Park,444,General,False,False,True,Laserfiche,The Spotted Cougar,True
800024408,9904,TC2229-3070,03318127,N-8160 / TC2404-3158,TC6305-9021,PA83JBN6929,1262 Infantry Square,490 Cole Point,Tampa,PA,50060,Housing Authority of Ben Avon Heights,178,General,False,True,False,Lowe's,First Choice Yard Help,True
800214160,7202,TC5380-6988,03300285,N-8714 / TC1077-4355,TC8050-7598,PA67MVL1443,Solution Bridge,980 Tacoma Estate,San Jacinto,PA,20051,Housing Authority of Aleppo,319,Elderly,False,False,True,O'Reilly,Monk Real Estate Service,True
800112921,10738,TC1735-9862,03368192,N-0253 / TC2179-3531,TC8677-0384,PA76DRO8730,AC Lens,133 Blatchford Stravenue,Yuma,PA,75397,Housing Authority of Rosslyn Farms,144,General,True,True,False,Envirotecture Design Service,Gemini Sound Products,True
800498844,7158,TC8275-3632,03377369,N-2232 / TC7587-7586,TC5973-3356,PA19JAC4288,Flexus,374 Ford Walk,Tifton,PA,30460,Housing Authority of Versailles,124,General,True,False,False,Komerci,Kroger,True
800131321,4327,TC6228-4805,03331956,TC7602-0979,TC7094-5204,PA79VLV0392,296 Bass Trace,1185 Temescal Run,Norfolk,PA,53243,Housing Authority of Franklin Park,430,Elderly,False,True,False,J. P. Morgan Chase and Co.,Wynn Resorts,True
800877985,3827,TC3521-1580,03375226,Y-9283 / TC7144-8240,TC9151-8738,PA15VWS3753,Star Bright Investment Group,1012 Cayuga Estate,Ramsey,PA,70558,Housing Authority of Marshall,555,Elderly,False,False,False,Bosch Brewing Company,Sauer-Danfoss,
800277882,8811,TC2286-7697,03379414,Y-1370 / TC1353-5901,TC0436-9829,PA82RQB1693,Medimix International,671 Mansell Arcade,Sherman,PA,09108,Housing Authority of Braddock,60,Elderly,False,False,True,The Independent Planners,Kellogg Company,
800343694,8418,TC6167-9296,03343012,N-2493 / TC5115-0649,TC2415-9640,PA94QEY2852,Hot Topic,177 Dawson Stravenue,Agawam,PA,45806,Housing Authority of Springdale,566,General,False,False,True,CNA,Amy's Kitchen,True
800979917,8133,TC3270-3384,03347720,Y-5760 / TC8802-6992,TC0663-7186,PA39MWC3036,352 Lendrum Point,1191 East Beach Drive,Iowa City,PA,57350,Housing Authority of McKeesport,125,Elderly,False,True,True,Delphi,Convergys Corp.,True
800323047,8690,TC7120-8000,03360782,TC0495-1642,TC0163-9677,PA73OZJ1669,Rent-A-Wreck,74 Mccoppin Place,Odessa,PA,36027,Housing Authority of Turtle Creek,137,Elderly,False,False,True,Seattle's Best Coffee,Omni Architectural Designs,
800695133,3540,TC3556-0337,03353163,TC8631-9705,TC4148-1549,PA78VOS1797,334 Noriega Point,789 Wallen Place,Plant City,PA,30280,Housing Authority of Haysville,194,General,True,True,True,Mutual of Omaha,Terra,
800520884,1067,TC5492-4848,03372977,N-4838 / TC0309-1819,TC4791-8554,PA03RCN1286,904 King Cove,747 Copper Trail,Shelby,PA,10380,Housing Authority of Homestead,142,General,False,False,True,Cougar Investment,Jarden,
800278379,9833,TC9275-1717,03391051,N-6381 / TC4687-3644,TC0654-1998,PA03UUE0120,GEICO,598 Park Presidio Point,Conway,PA,12833,Housing Authority of West View,551,General,True,True,True,Forum Communications,Allegheny Technologies,True
800354036,3610,TC3833-1982,03390077,N-8569 / TC2776-9252,TC9888-2704,PA10FFH7960,Xerox,879 Wattson Lodge,Shawnee,PA,12948,Housing Authority of West Elizabeth,295,Elderly,False,False,True,LinkedIn,VECO Corporation,
800409734,9869,TC5604-5459,03339453,Y-7354 / TC3415-6425,TC5700-1475,PA90WND2536,537 Vidal Path,800 Acme Spur,Gretna,PA,55353,Housing Authority of Braddock Hills,306,General,True,True,False,GHD Inc.,Garden Master,True
800369495,7749,TC3324-6984,03390463,Y-3852 / TC9398-5452,TC9723-8135,PA38YFQ8644,380 Northern Street,1022 Josepha Motorway,Kissimmee,PA,79823,Housing Authority of Munhall,115,General,False,True,False,Biomet,"Aaron's, Inc.",
800340763,3048,TC5232-0791,03318742,TC4539-6904,TC2385-0592,PA42SBK9216,240 Paraiso Point,467 Alta Mar Field,Dayton,PA,34903,Housing Authority of Monroeville,461,General,False,True,False,"Aaron's, Inc.",Lucasfilm,
800619952,3940,TC4525-0697,03315451,TC0560-3475,TC5134-9144,PA93SCJ8349,Cut Rite Lawn Care,391 Alvord Station,Ottumwa,PA,11034,Housing Authority of Crafton,58,General,True,True,False,Edge Yard Service,Terra Nova Garden Services,
800165979,5456,TC1991-7936,03341238,N-2048 / TC3297-1362,TC9011-9142,PA35ABC7414,780 Worden Walk,660 Truby Viaduct,New Brunswick,PA,16605,Housing Authority of Mt Lebanon,67,Elderly,True,True,False,Intercontinental Manufacturing Company,Romp,True
800686265,1622,TC8253-6707,03312454,TC8686-5077,TC2894-5671,PA85FDN3723,Silicon Image,966 Parkridge Plaza,Idaho Falls,PA,87214,Housing Authority of Brackenridge,337,Elderly,False,False,True,Gibson Guitar Corporation,BB&T Corporation,True
800848629,6081,TC0570-8821,03357657,Y-2966 / TC9497-1659,TC6608-2144,PA95ICF9945,798 Miguel Lodge,264 Cashmere Stravenue,Gary,PA,30085,Housing Authority of McKeesport,597,General,True,True,False,Winnebago Industries,The Weinstein Company,
800957347,3041,TC0746-7869,03368738,N-6874 / TC8129-7007,TC1843-0014,PA44EZQ2999,Take-Two Interactive,512 Keith Plaza,West Springfield,PA,07767,Housing Authority of Dravosburg,69,General,False,True,True,Johnson & Johnson,Procter & Gamble,True
800247721,6854,TC1732-8606,03354464,N-2580 / TC6594-5443,TC2233-0636,PA21XLM0304,Benesome,131 East Fort Miley Turnpike,Harlingen,PA,80953,Housing Authority of Port Vue,479,General,False,True,True,Southwest Airlines,BlackRock,True
800709727,7061,TC9530-5956,03342671,N-9573 / TC1767-2608,TC1451-7415,PA88CKX1023,686 Mabel Creek,1296 Hale Plaza,Jeffersontown,PA,92199,Housing Authority of Pleasant Hills,116,Elderly,True,False,False,US Cellular,Creative Wealth Management,
800574680,5726,TC9164-6515,03320237,Y-7454 / TC5331-0008,TC6100-3175,PA32FBH6052,Belk,1309 Argent Hill,Jamestown,PA,09610,Housing Authority of South Versailles,341,Elderly,False,True,False,Xilinx,American Apparel,True
800798458,7365,TC4686-2654,03312764,N-8007 / TC5419-0030,TC8446-6731,PA79DFK0361,1280 Bryn Mahr Pike,358 Alma Spur,Elizabeth,PA,24780,Housing Authority of Heidelberg,79,Elderly,True,True,True,Overcast Media,WellPoint,True
800315122,2320,TC0387-8462,03339168,TC8371-3293,TC2372-1604,PA82CAJ8819,Dole Foods,1377 Forest View Avenue,Aurora,PA,99251,Housing Authority of Swissvale,378,Elderly,False,False,True,Starz,Platinum Interior Design,True
800617957,4797,TC2871-4098,03329976,Y-6783 / TC2592-0644,TC5374-2178,PA88XYJ5270,1395 Letterman Park,1265 Colusa Bridge,Holland,PA,69272,Housing Authority of Brackenridge,194,General,False,True,False,Boston Scientific,Towers Perrin,
800530180,9563,TC0754-2401,03300114,TC0479-7189,TC5584-9064,PA71THU0288,414 Hunter Field,784 Cutler Plaza,Wentzville,PA,34084,Housing Authority of Pine,41,General,False,False,True,Chargepal,The Flying Hippo,True
800014818,4955,TC6783-4687,03331290,TC6381-7064,TC1139-1557,PA99YMA6608,OPOWER,388 Lawton Loop,Snellville,PA,40666,Housing Authority of Elizabeth,17,General,True,False,False,H&R Block,Walt Disney Company,True
800020973,4425,TC0165-5284,03372266,N-4915 / TC4017-6003,TC0007-8293,PA57GNF2762,Northwest Airlines,235 Velasco Plaza,Sandy,PA,97079,Housing Authority of Coraopolis,6,General,True,False,True,Smith and Company,Bountiful Harvest Health Food Store,
800608283,2672,TC8954-3343,03320131,Y-5555 / TC3066-7543,TC0149-6871,PA40QPN3919,Life Plan Counselling,1293 San Carlos Court,Union City,PA,72338,Housing Authority of West View,8,Elderly,True,True,True,Forum Communications,Total Sources,
800039238,8863,TC5560-7004,03303767,TC4584-9069,TC1118-9204,PA87AJR5025,1309 Wanda Creek,60 Halleck Motorway,Moline,PA,90730,Housing Authority of Bellevue,480,General,False,True,True,Time Warner Cable,Ann Taylor,
800727425,9614,TC7206-6557,03346428,N-2985 / TC4570-0291,TC5449-7790,PA17MHN4240,808 Reposa Highway,197 Constanso Creek,Yucaipa,PA,11859,Housing Authority of East Pittsburgh,271,Elderly,True,True,False,First Rate Choice,Manu Connection,
800971927,6861,TC4426-6640,03355597,Y-9895 / TC6905-7612,TC0846-3127,PA87HTI1680,United Parcel Service,37 Spreckels Lake Lodge,Angleton,PA,94593,Housing Authority of Franklin Park,78,General,False,False,False,Exact Solutions,Gemini Sound Products,True
800221711,4433,TC5665-5973,03388239,TC8091-6549,TC9114-6381,PA41YBR6613,276 Homewood Lake,867 Avalon Pine,Anchorage,PA,86821,Housing Authority of Munhall,251,General,False,False,False,Body Toning,Taco Tico,
800517548,6551,TC5781-5349,03364121,N-1086 / TC1387-4512,TC4590-2508,PA62XNX1966,Seksi Lady,1106 Genebern Station,Plantation,PA,83287,Housing Authority of Whitaker,445,Elderly,True,False,False,Alert Alarm Company,Enterprise GP Holdings,True
800786753,7706,TC6127-1303,03336957,TC7884-5679,TC7812-7747,PA20RPG5560,VECO Corporation,315 Rutledge Boulevard,Temple City,PA,70499,Housing Authority of Kilbuck,141,Elderly,True,False,False,"Fred Meyer, Inc.",Allstate,
800138498,2527,TC5058-5037,03339771,N-7265 / TC5918-6806,TC2521-2070,PA68DUW2409,901 Stonecrest Path,612 Terrace Field,Anderson,PA,38532,Housing Authority of Franklin Park,406,Elderly,False,True,True,Destiny Realty,Bristol-Myers Squibb,True
800680404,7505,TC8103-3315,03396065,N-0344 / TC7375-8785,TC4239-3597,PA10BSV1778,586 Cotter Street,372 Brewster Estate,Papillion,PA,56038,Housing Authority of Ben Avon,45,General,True,True,False,Vermeer Industries,Dole Foods,True
800636128,5776,TC5766-4766,03320814,TC1846-7829,TC5704-9944,PA78FOP2365,1075 Nobles Stravenue,44 Spencer Mews,Belvidere,PA,64689,Housing Authority of Crescent,350,Elderly,False,True,True,Anadarko Petroleum Corporation,"CA, Inc.",
800538027,7251,TC5584-2594,03354912,N-1484 / TC1807-7751,TC5414-7125,PA91MAN6885,GTECH,861 Malta Landing,Ridgewood,PA,25257,Housing Authority of Lincoln,378,General,False,True,True,Ubu Productions,Kraft Foods,
800717954,1216,TC4276-6393,03343077,Y-7534 / TC7797-6179,TC6435-2483,PA69ZQZ8416,Office Depot,797 Sampson Glen,New Lenox,PA,13477,Housing Authority of South Park,7,Elderly,False,False,False,Dick's Sporting Goods,Total Serve,True
800398559,3761,TC8712-6737,03397817,TC2602-7552,TC0918-0082,PA01YKW5617,Destiny Realty Solutions,1082 Irwin Green,Beaumont,PA,50611,Housing Authority of Moon,499,General,False,False,True,Hornbeck Offshore Services,Georgia Pacific,
800735340,2351,TC2744-0257,03310555,TC4926-2468,TC8989-1899,PA19BZF8019,870 Brookdale Mall,1045 Edgemont Path,Wake Forest,PA,09300,Housing Authority of ,282,General,True,False,True,Calpine,Equifax,True
800420918,3346,TC5412-8054,03340614,TC0894-4977,TC5928-7256,PA64YEF8979,Pearl Architectural Design,759 Phoenix Rapids,Chelsea,PA,35671,Housing Authority of Haysville,392,General,True,True,True,H&R Block,Stratacard,True
800778330,4718,TC4340-6007,03358079,Y-7822 / TC2808-9036,TC3756-7012,PA74RZR2734,Total Sources,592 Fountain Ferry,Plantation,PA,44227,Housing Authority of Edgewood,160,Elderly,False,True,False,Hewlett-Packard,American Express,True
800982151,9394,TC2180-3598,03344869,Y-6598 / TC6662-4229,TC0532-6968,PA52WGX5831,Trinity Industries Inc.,153 Milton I Ross Lake,Lake Zurich,PA,81805,Housing Authority of Brentwood,108,Elderly,True,False,False,Warner Bros. Entertainment,Cartoon Network Studios,True
800651774,894,TC5109-6710,03342814,Y-6244 / TC3650-4122,TC2190-6507,PA43LSX3399,BMC Software,935 Owens Arcade,Grandview,PA,43600,Housing Authority of Leet,95,General,False,False,False,Acme Brick Company,DST Systems,
800298725,1632,TC3807-4056,03389504,Y-1107 / TC5790-2240,TC1189-7718,PA40QQH3495,Lone Wolf Wealth Planning,195 Cesar Chavez On Row,Upland,PA,39945,Housing Authority of Springdale,544,General,False,True,True,J. P. Morgan Chase and Co.,Quantrix,
800621650,2541,TC0690-0255,03300015,Y-6237 / TC2140-8642,TC8985-5568,PA96TNU3194,MagnaSolution,959 Sycamore Pass,Dalton,PA,31556,Housing Authority of Brentwood,349,General,False,False,True,QVC,Crazy Eddie,True
800977141,9879,TC9353-7208,03366344,Y-5924 / TC1501-2769,TC8472-4712,PA97ZJO6502,Payless ShoeSource,283 Craig Bridge,Avon Lake,PA,65317,Housing Authority of Monroeville,506,General,False,True,True,Star Assistance,Wealth Zone Group,True
800083033,4554,TC2199-6110,03307595,TC4472-8056,TC3777-9384,PA29LJI0022,888 Williams Path,894 Hamilton Trace,Wellington,PA,61399,Housing Authority of Stowe,438,General,True,False,True,Naturohair,McConn & Company,True
800280124,5065,TC3553-0156,03332807,TC4658-4068,TC1487-1389,PA48QGL0470,Webcom Business Services,797 Marist Center,Mustang,PA,66760,Housing Authority of Mt Lebanon,131,Elderly,True,False,False,OpenMarket Inc.,W. R. Berkley,True
800874303,7212,TC5579-6722,03359867,TC5521-3781,TC7767-6490,PA72VGN1157,465 Sotelo Row,440 Myra Highway,Sanford,PA,91740,Housing Authority of Leet,499,Elderly,False,False,False,System Star Solutions,Advansed Teksyztems,True
800655559,9904,TC9760-5937,03366244,N-5223 / TC6158-6479,TC4867-2535,PA70MIY5068,1151 Harold Court,1236 Delaware Motorway,Ennis,PA,76011,Housing Authority of Brackenridge,258,General,True,True,False,Dover Corporation,Principal Financial Group,
800596848,2929,TC9988-2172,03308076,TC2792-4246,TC8507-9382,PA58FLO2077,Airgas,927 Arballo Bypass,Hurst,PA,77235,Housing Authority of Kennedy,532,Elderly,True,False,False,Maxiserve,W. R. Berkley,
800039782,2013,TC0888-7833,03302218,Y-8278 / TC9038-0726,TC1545-3111,PA59CAH9570,861 Fenton Arcade,1219 Plaza Estate,Milwaukie,PA,83850,Housing Authority of Blawnox,323,General,False,False,False,First Rate Choice,Vari-Tec,
800807997,2121,TC3019-6455,03376869,N-3736 / TC0378-9604,TC7055-8119,PA74BHC4937,1051 Selma Heights,510 California Trail,Spokane,PA,34967,Housing Authority of Crescent,374,Elderly,True,False,True,Capitalcorp,Strategy Consulting,True
800460888,1241,TC0493-1581,03315176,TC1639-5350,TC2988-1182,PA41KKU2888,632 Gilroy Spur,444 Hunt Arcade,Millville,PA,22269,Housing Authority of Turtle Creek,543,General,False,False,False,Allegheny Energy,Pier 1 Imports,True
800711538,6082,TC9850-8330,03353530,N-3361 / TC6748-1119,TC6484-9624,PA01GCT5504,409 Ingerson Crossing,842 Tampa Junction,Little Rock,PA,50070,Housing Authority of Baldwin,468,General,False,False,True,Body Toning,Modern Architecture Design,True
800673154,7056,TC1686-4481,03388388,TC9646-2032,TC5191-3648,PA08VVM5890,The Goose and Duck,1023 Nordhoff Center,St. Joseph,PA,61588,Housing Authority of Brentwood,163,General,False,False,True,Verbatim Corporation,Westat,
800530902,8063,TC9679-3222,03379571,N-0021 / TC8329-8694,TC9916-6910,PA28CWZ2696,182 Merlin Court,911 Laussat Trail,Brownsburg,PA,02954,Housing Authority of Pitcairn,574,General,False,False,True,Silicon Graphics,The Flying Bear,
800647606,4446,TC6936-7911,03386437,Y-5739 / TC3005-5425,TC5648-2997,PA90XCX1634,975 Sonoma Avenue,905 Clarence Lane,Sedalia,PA,50870,Housing Authority of Richland,510,General,True,True,True,Danaher,Star Assistance,True
800821832,10430,TC8821-8614,03346286,Y-9360 / TC3346-6291,TC4810-4317,PA72KNG7907,THQ,1342 Teddy Heights,Palisades Park,PA,83641,Housing Authority of Ohio,331,General,True,False,True,Rockford Fosgate,Desert Garden Help,True
800210534,7057,TC0127-1819,03340150,TC8006-8256,TC2898-9692,PA84PHL6680,836 Kimball Place,687 Gallagher Alley,Bradenton,PA,16418,Housing Authority of Harrison,450,Elderly,True,True,False,Convergys Corp.,Strategy Planner,
800774210,3643,TC1802-3292,03353721,TC5027-0930,TC8434-8607,PA60NUY1079,Titania,584 Hill Alley,Sevierville,PA,62597,Housing Authority of Versailles,257,Elderly,False,True,False,Vitagee,Sky High Financial Advice,
800991950,2839,TC2861-2386,03344751,Y-9979 / TC2113-1859,TC1460-3723,PA79RSK5419,1025 Myra Gardens,462 Randall Viaduct,Pittsburgh,PA,81130,Housing Authority of Plum,174,General,True,False,False,Brinker International,Agilent Technologies,
800398475,5686,TC7445-0180,03361647,TC4944-3715,TC3698-1478,PA04NUV9831,789 Battery Cranston Bypass,1145 Burke Path,Muskogee,PA,79751,Housing Authority of Fox Chapel,86,Elderly,False,True,False,America Online,JL Audio,True
800649178,3529,TC0458-1955,03375832,N-1005 / TC5645-4390,TC3677-2469,PA00NCB7860,229 West Halleck Rapids,460 Moscow Street,Smyrna,PA,18242,Housing Authority of West Homestead,334,General,True,True,True,Magna Architectural Design,L.L.Bean,
800293568,5070,TC3846-8287,03370714,Y-6480 / TC2984-2963,TC3448-1453,PA90IUP2054,Southwest Airlines,653 Thomas Pike,Tamarac,PA,56675,Housing Authority of Kennedy,312,Elderly,True,False,True,ConocoPhillips,Magna Gases,True
800906500,4766,TC0283-7835,03365269,Y-2648 / TC7038-7802,TC2315-0599,PA34EGX5176,Boston Scientific,446 Crystal Plaza,Petersburg,PA,27363,Housing Authority of Blawnox,75,General,True,True,True,Team Uno,The Flying Hippo,
800202762,510,TC4079-9029,03313139,TC2398-4864,TC0311-7387,PA34FZV2216,1178 Cook Road,85 Jerrold Terrace,Victorville,PA,83550,Housing Authority of Ben Avon,98,General,True,False,True,The High Heelers,"Staples, Inc.",
800135245,9975,TC3955-3887,03341601,TC6736-3966,TC3296-9778,PA99DHG2318,The High Heelers,655 Seneca Row,Pleasant Prairie,PA,55414,Housing Authority of Stowe,577,Elderly,False,True,False,Magna Architectural Design,Royal Caribbean International,True
800308066,6310,TC1277-2748,03340447,TC6629-7519,TC6188-6471,PA36ZHK7613,Visa Inc.,316 Paper Freeway,Spokane,PA,66221,Housing Authority of ,60,General,False,False,True,Wise Appraisals,Target Corporation,
800004714,2945,TC5432-0794,03338474,TC9628-4177,TC2918-1307,PA43BRO2841,Honest Air Group,77 Vulcan Terrace,Sebastian,PA,55173,Housing Authority of West Mifflin,89,Elderly,True,True,False,Envirotecture Design Service,Enviro Architectural Designs,
800294723,3016,TC8874-5820,03365913,N-0268 / TC5361-5770,TC6425-6776,PA59MEZ9764,PACCAR,744 Farallones Stravenue,Commerce City,PA,94931,Housing Authority of West Homestead,68,Elderly,False,False,True,Dollar General,Pro Property Maintenance,True
800032749,2076,TC0323-0027,03356161,Y-4699 / TC9943-2191,TC3879-2547,PA39NVX3688,959 Golden Gate Parkway,725 Church Parking Lot Rapids,Kalamazoo,PA,41783,Housing Authority of Stowe,471,Elderly,False,False,True,Asian Junction,Dr Pepper Snapple Group,True
800606115,700,TC2733-8300,03349273,Y-0684 / TC7680-4374,TC2028-5453,PA05XHA4412,239 Bret Harte Path,1340 Hare Trace,Winter Park,PA,58502,Housing Authority of Castle Shannon,446,General,False,True,False,Master Builder Design Services,Musco Lighting,
800972503,10026,TC7321-3676,03382679,TC5032-9672,TC2648-0464,PA93IAL4610,573 Varney Shore,1124 Briarcliff Manor,Lakewood,PA,30131,Housing Authority of McKeesport,393,General,False,False,True,Indiewealth,Bold Ideas,True
800948978,2462,TC4955-9005,03358492,N-9868 / TC0805-4254,TC9143-0252,PA20HXL8482,1347 Sandpiper Cove Route,74 Bliss Street,Pittsburg,PA,79183,Housing Authority of Fawn,253,Elderly,True,True,False,Cougar Investment,Gore-Tex,True
800180821,2262,TC1511-3047,03338422,TC5470-7679,TC0462-6512,PA70HYM6158,1325 Mississippi Rapids,1118 Allen Trail,Muskogee,PA,29489,Housing Authority of Elizabeth,338,Elderly,False,False,True,DirecTV,Corning Incorporated,True
800437295,7418,TC8558-7730,03331963,N-2281 / TC6047-5413,TC5078-8392,PA16TMQ2007,Liberty Wealth Planners,201 Ocean Vista Station,Simpsonville,PA,44363,Housing Authority of Harmar,53,General,False,True,True,BorgWarner,Powerbod,
800052286,2394,TC2265-0210,03392566,N-9321 / TC4329-7868,TC0926-4717,PA89NCP6214,327 Van Keuren Place,798 Crystal Highway,Avon,PA,18425,Housing Authority of Liberty,348,Elderly,True,True,True,ManCharm,Orion,True
800229986,6076,TC6493-8607,03395803,Y-5035 / TC1574-1445,TC6253-3174,PA53RIF7850,Victoria's Secret,666 Enterprise Annex,Dearborn,PA,10816,Housing Authority of Ben Avon Heights,367,Elderly,True,False,True,Cut Rite Lawn Care,Brunswick Corporation,True
800912823,4435,TC4890-3939,03317092,N-0410 / TC0493-0135,TC3872-0474,PA51WLZ9481,BearingPoint,771 Quickstep Row,Wentzville,PA,51536,Housing Authority of Monroeville,356,Elderly,False,True,False,Elizabeth Arden,Clear Channel Communications,
800406633,240,TC9802-1245,03395455,TC9577-4885,TC1057-3190,PA54FVK6410,1000 Townsend Bend,1104 Silver Arcade,Roseburg,PA,87812,Housing Authority of Dravosburg,438,General,True,True,True,Houlihan's,AES Corporation,
800797310,427,TC7796-5521,03333291,Y-1892 / TC1422-8556,TC1830-5900,PA69USR8767,Grey Fade,1306 Battery Chamberlin Viaduct,Lauderhill,PA,79545,Housing Authority of McKees Rocks,200,Elderly,False,True,True,The Goose and Duck,CIGNA,True
800185431,2703,TC4162-1964,03385026,Y-1181 / TC2725-6234,TC4148-3340,PA98AIG9454,Aramark,143 Guerrero Terrace,Muscatine,PA,94840,Housing Authority of Oakmont,586,Elderly,False,False,False,Gamma Realty,Onvia,True
800737153,1362,TC5523-7073,03339854,Y-4034 / TC1498-1687,TC2130-6433,PA48NDF1297,252 Barneveld Avenue,1088 Garfield Street,Poughkeepsie,PA,34278,Housing Authority of Whitehall,164,Elderly,False,True,True,Quincy Newspapers,Esselte,True
800093531,1628,TC6557-5519,03382684,Y-0830 / TC7132-3960,TC9139-7268,PA55IED6453,WWE,676 Kaplan Parkway,Harrisonburg,PA,25122,Housing Authority of Springdale,361,Elderly,True,True,False,Lazysize,Martin Marietta Materials,True
800210179,9822,TC4331-4538,03367935,TC6143-1151,TC1688-5805,PA99RTV8182,722 Castenada Crescent,1119 Miley Path,Orange,PA,76943,Housing Authority of Stowe,362,Elderly,False,True,False,American Financial Group,ACN Inc.,
800696261,8822,TC8463-3807,03357376,N-2254 / TC0049-1498,TC4138-8636,PA53OXI3132,1182 Stanford Heights Court,1117 Rivera Pine,Norco,PA,14254,Housing Authority of Sewickley Heights,455,Elderly,True,False,False,Midway Games,Kraft Foods,True
800293274,4514,TC2218-5607,03321052,Y-2883 / TC5231-3455,TC2978-2723,PA82KBH6521,"Staples, Inc.",675 Coleridge Bayou,Wisconsin Rapids,PA,82506,Housing Authority of Glen Osborne,566,General,False,True,True,Sprint Nextel Corporation,Alexander & Baldwin,True
800534149,5187,TC5372-0727,03340835,N-3116 / TC1732-1179,TC3377-4723,PA03AMR9416,Zoo York,1064 Hampshire Drive,North Lauderdale,PA,49925,Housing Authority of Forward,67,General,True,True,False,Boise Cascade,Team Uno,
800473238,10748,TC3040-6354,03305675,N-8254 / TC8652-4680,TC5933-3904,PA48MGR4361,1036 Bertha Court,938 Huron Canyon,Santa Clara,PA,28168,Housing Authority of North Braddock,356,Elderly,True,True,True,JL Audio,American Express,True
800455608,10741,TC1287-3743,03323197,N-4821 / TC2588-9339,TC2317-8175,PA47MDK3881,470 Ora Square,211 Mistral Bend,East St. Louis,PA,75348,Housing Authority of Carnegie,187,Elderly,True,True,False,Creative Wealth Management,Nutri G,
800641198,4736,TC5754-8378,03380595,N-9369 / TC0456-6987,TC8299-8219,PA94TBS3912,Lexmark,475 Ludlow Pine,Bloomingdale,PA,50851,Housing Authority of Green Tree,580,Elderly,False,True,False,Abbott Laboratories,Infinite Wealth,True
800425160,667,TC9611-6297,03389974,TC2285-7076,TC5772-6194,PA73XNF6536,Incluesiv,1232 Lapham Lake,Greenwood,PA,36685,Housing Authority of Millvale,99,General,True,True,False,Integra Wealth Planners,Netaid,True
800934753,10790,TC2655-6813,03373304,N-5005 / TC2981-3605,TC6084-0675,PA21CID0839,Magnavox,740 Mabini Walk,Lomita,PA,68367,Housing Authority of Liberty,279,Elderly,True,False,True,Carnival Corporation & plc,Mozilla Foundation,
800393913,10694,TC7743-6283,03319453,Y-1340 / TC8534-3996,TC8951-8869,PA10JPB0132,53 Sherman Gardens,195 Masonic Cove,Chester,PA,38702,Housing Authority of Scott,543,General,True,True,False,Red Bears Tavern,Practi-Plan Mapping,True
800917099,7685,TC2935-8200,03339337,N-3278 / TC1079-3254,TC8609-4794,PA59QUN3554,Yahoo!,238 Temescal Cove,Sachse,PA,83951,Housing Authority of Indiana,13,General,True,False,True,VECO Corporation,Dun Rite Lawn Care,
800730969,373,TC7396-7372,03302777,TC7903-4113,TC6139-9743,PA96NMG1559,852 San Gabriel Street,670 Poppy Ranch,Pacifica,PA,28057,Housing Authority of Upper St Clair,381,Elderly,True,True,False,Advance Auto Parts,Auto-Owners Insurance,
800804061,8263,TC4896-3425,03363354,TC2090-7576,TC8359-5366,PA11CYC0131,749 Rosa Parks Pass,1078 Calhoun Crescent,New Smyrna Beach,PA,00022,Housing Authority of North Fayette,180,Elderly,False,True,False,KBR,Hasbro,
800460496,4069,TC2740-9973,03320846,TC6770-8700,TC0529-8024,PA66AFR5507,704 Rey Extension,305 Thornton Ranch,North Port,PA,01953,Housing Authority of West Homestead,177,Elderly,False,False,True,Belkin,GE Consumer & Industrial,True
800896134,10791,TC0658-5837,03349861,N-0317 / TC4423-4012,TC6009-1658,PA28DUV6869,585 Calvert Glen,772 Fisher Bend,Brownwood,PA,67864,Housing Authority of West View,507,Elderly,False,False,False,Peterbilt,Applied Biosystems,
800393844,2391,TC7700-9076,03368070,Y-8017 / TC7399-0453,TC3756-2009,PA40LMF3815,AutoNation,833 Torrens Glen,Toledo,PA,85041,Housing Authority of South Versailles,464,Elderly,False,True,True,Grade A Investment,Vertex Pharmaceuticals,True
800968095,3370,TC3248-6876,03363156,TC8759-8588,TC2284-6729,PA86QJX8164,221 Massachusetts Route,407 Clinton Place,North Miami,PA,74881,Housing Authority of Chalfant,425,Elderly,False,False,False,MCI Inc.,Ideal Industries,
800705784,2377,TC9518-7379,03322432,TC4802-3810,TC7566-3933,PA95YEY1103,785 Western Shore Grove,936 Bannock Arcade,Miami,PA,59815,Housing Authority of Forward,462,Elderly,True,True,True,Louisiana Pacific,Garden Guru,
800730143,5056,TC5523-6710,03371592,TC5735-6210,TC7325-7606,PA02YMT8307,DC Shoes,663 Mammon Court,Garland,PA,18322,Housing Authority of South Park,507,Elderly,True,False,False,"Sun Microsystems, Inc.",Emcor,
800055456,4593,TC4904-0635,03337110,TC0353-0808,TC6765-7363,PA23BIK7465,Musco Lighting,1324 Stanton Alley,Nicholasville,PA,99555,Housing Authority of Franklin Park,419,Elderly,False,False,False,ACCO Brands,Zoom Technologies,True
800741334,4579,TC3207-2203,03304023,N-8359 / TC5268-2676,TC4379-7635,PA75TJL9803,Sky High Financial Advice,159 Catalina Arcade,Hinsdale,PA,11803,Housing Authority of Marshall,521,General,True,False,True,PC Power and Cooling,Arryx,
